SENTINEL-2A             
1 40697U 15028A   21029.06765759  .00000002  00000-0  17214-4 0  9992
2 40697  98.5650 106.0430 0001297  96.6713 263.4618 14.30818932292727
AVUM R/B                
1 40698U 15028B   21028.81068326  .00002480  00000-0  11024-3 0  9995
2 40698  98.6674 354.0070 0254680   0.3654 359.7705 14.98257576306011
